{
 "generated_at": "2026-07-06T09:00:32Z",
 "sources": [
  {
   "name": "CelesTrak",
   "url": "https://celestrak.org/NORAD/elements/",
   "license": "frei verfügbar; Attribution. Ursprünglich USSPACECOM/Space-Track."
  },
  {
   "name": "GCAT (J. McDowell, planet4589.org)",
   "url": "https://planet4589.org/space/gcat/",
   "license": "CC-BY 4.0"
  }
 ],
 "satellites": [
  {
   "norad": 38709,
   "name": "EXACTVIEW-1 (ADS-1B)",
   "intl": "2012-039C",
   "group": "resource",
   "gcat": {
    "class": "B",
    "category": "COM",
    "owner": "EXEA",
    "state": "CA"
   },
   "omm": {
    "OBJECT_NAME": "EXACTVIEW-1 (ADS-1B)",
    "OBJECT_ID": "2012-039C",
    "EPOCH": "2026-07-05T06:52:08.476608",
    "MEAN_MOTION": 14.249903,
    "ECCENTRICITY": 0.0011864,
    "INCLINATION": 98.9797,
    "RA_OF_ASC_NODE": 304.0869,
    "ARG_OF_PERICENTER": 117.4533,
    "MEAN_ANOMALY": 242.7854,
    "EPHEMERIS_TYPE": 0,
    "CLASSIFICATION_TYPE": "U",
    "NORAD_CAT_ID": 38709,
    "ELEMENT_SET_NO": 999,
    "REV_AT_EPOCH": 72528,
    "BSTAR": 0.000090688,
    "MEAN_MOTION_DOT": 0.00000166,
    "MEAN_MOTION_DDOT": 0
   }
  },
  {
   "norad": 40367,
   "name": "FENGYUN 2G",
   "intl": "2014-090A",
   "group": "weather",
   "gcat": {
    "class": "C",
    "category": "MET",
    "owner": "NSMC",
    "state": "CN"
   },
   "omm": {
    "OBJECT_NAME": "FENGYUN 2G",
    "OBJECT_ID": "2014-090A",
    "EPOCH": "2026-07-05T14:18:49.021344",
    "MEAN_MOTION": 1.00265165,
    "ECCENTRICITY": 0.0003703,
    "INCLINATION": 5.6825,
    "RA_OF_ASC_NODE": 72.5975,
    "ARG_OF_PERICENTER": 150.4392,
    "MEAN_ANOMALY": 14.7589,
    "EPHEMERIS_TYPE": 0,
    "CLASSIFICATION_TYPE": "U",
    "NORAD_CAT_ID": 40367,
    "ELEMENT_SET_NO": 999,
    "REV_AT_EPOCH": 4218,
    "BSTAR": 0,
    "MEAN_MOTION_DOT": -0.00000289,
    "MEAN_MOTION_DDOT": 0
   }
  },
  {
   "norad": 43491,
   "name": "FENGYUN 2H",
   "intl": "2018-050A",
   "group": "weather",
   "gcat": {
    "class": "C",
    "category": "MET",
    "owner": "NSMC",
    "state": "CN"
   },
   "omm": {
    "OBJECT_NAME": "FENGYUN 2H",
    "OBJECT_ID": "2018-050A",
    "EPOCH": "2026-07-05T15:41:44.803392",
    "MEAN_MOTION": 1.00268984,
    "ECCENTRICITY": 0.00019034,
    "INCLINATION": 3.076,
    "RA_OF_ASC_NODE": 78.8635,
    "ARG_OF_PERICENTER": 122.1926,
    "MEAN_ANOMALY": 37.2943,
    "EPHEMERIS_TYPE": 0,
    "CLASSIFICATION_TYPE": "U",
    "NORAD_CAT_ID": 43491,
    "ELEMENT_SET_NO": 999,
    "REV_AT_EPOCH": 2962,
    "BSTAR": 0,
    "MEAN_MOTION_DOT": -0.00000116,
    "MEAN_MOTION_DDOT": 0
   }
  },
  {
   "norad": 32958,
   "name": "FENGYUN 3A",
   "intl": "2008-026A",
   "group": "weather",
   "gcat": {
    "class": null,
    "category": null,
    "owner": null,
    "state": null
   },
   "omm": {
    "OBJECT_NAME": "FENGYUN 3A",
    "OBJECT_ID": "2008-026A",
    "EPOCH": "2026-07-05T07:15:40.001184",
    "MEAN_MOTION": 14.19575181,
    "ECCENTRICITY": 0.0009875,
    "INCLINATION": 98.6885,
    "RA_OF_ASC_NODE": 126.7971,
    "ARG_OF_PERICENTER": 77.2748,
    "MEAN_ANOMALY": 282.9532,
    "EPHEMERIS_TYPE": 0,
    "CLASSIFICATION_TYPE": "U",
    "NORAD_CAT_ID": 32958,
    "ELEMENT_SET_NO": 999,
    "REV_AT_EPOCH": 93797,
    "BSTAR": 0.000077931,
    "MEAN_MOTION_DOT": 0.00000121,
    "MEAN_MOTION_DDOT": 0
   }
  },
  {
   "norad": 37214,
   "name": "FENGYUN 3B",
   "intl": "2010-059A",
   "group": "weather",
   "gcat": {
    "class": null,
    "category": null,
    "owner": null,
    "state": null
   },
   "omm": {
    "OBJECT_NAME": "FENGYUN 3B",
    "OBJECT_ID": "2010-059A",
    "EPOCH": "2026-07-05T15:23:27.494880",
    "MEAN_MOTION": 14.14847618,
    "ECCENTRICITY": 0.00228466,
    "INCLINATION": 98.9605,
    "RA_OF_ASC_NODE": 232.7334,
    "ARG_OF_PERICENTER": 132.5681,
    "MEAN_ANOMALY": 37.5405,
    "EPHEMERIS_TYPE": 0,
    "CLASSIFICATION_TYPE": "U",
    "NORAD_CAT_ID": 37214,
    "ELEMENT_SET_NO": 999,
    "REV_AT_EPOCH": 81003,
    "BSTAR": 0.00031421901,
    "MEAN_MOTION_DOT": 0.00000563,
    "MEAN_MOTION_DDOT": 0
   }
  },
  {
   "norad": 39260,
   "name": "FENGYUN 3C",
   "intl": "2013-052A",
   "group": "weather",
   "gcat": {
    "class": "C",
    "category": "MET",
    "owner": "NSMC",
    "state": "CN"
   },
   "omm": {
    "OBJECT_NAME": "FENGYUN 3C",
    "OBJECT_ID": "2013-052A",
    "EPOCH": "2026-07-05T15:08:31.011936",
    "MEAN_MOTION": 14.15759195,
    "ECCENTRICITY": 0.00141465,
    "INCLINATION": 98.4998,
    "RA_OF_ASC_NODE": 159.6597,
    "ARG_OF_PERICENTER": 334.9488,
    "MEAN_ANOMALY": 25.0999,
    "EPHEMERIS_TYPE": 0,
    "CLASSIFICATION_TYPE": "U",
    "NORAD_CAT_ID": 39260,
    "ELEMENT_SET_NO": 999,
    "REV_AT_EPOCH": 66117,
    "BSTAR": 0.000059848831,
    "MEAN_MOTION_DOT": 7.6e-7,
    "MEAN_MOTION_DDOT": 0
   }
  },
  {
   "norad": 43010,
   "name": "FENGYUN 3D",
   "intl": "2017-072A",
   "group": "weather",
   "gcat": {
    "class": "C",
    "category": "MET",
    "owner": "NSMC",
    "state": "CN"
   },
   "omm": {
    "OBJECT_NAME": "FENGYUN 3D",
    "OBJECT_ID": "2017-072A",
    "EPOCH": "2026-07-05T14:40:53.512608",
    "MEAN_MOTION": 14.19743309,
    "ECCENTRICITY": 0.00019939,
    "INCLINATION": 99.014,
    "RA_OF_ASC_NODE": 161.3677,
    "ARG_OF_PERICENTER": 32.1236,
    "MEAN_ANOMALY": 328.0061,
    "EPHEMERIS_TYPE": 0,
    "CLASSIFICATION_TYPE": "U",
    "NORAD_CAT_ID": 43010,
    "ELEMENT_SET_NO": 999,
    "REV_AT_EPOCH": 44760,
    "BSTAR": 0.000067845148,
    "MEAN_MOTION_DOT": 9.7e-7,
    "MEAN_MOTION_DDOT": 0
   }
  },
  {
   "norad": 49008,
   "name": "FENGYUN 3E",
   "intl": "2021-062A",
   "group": "weather",
   "gcat": {
    "class": "C",
    "category": "MET",
    "owner": "NSMC",
    "state": "CN"
   },
   "omm": {
    "OBJECT_NAME": "FENGYUN 3E",
    "OBJECT_ID": "2021-062A",
    "EPOCH": "2026-07-05T14:14:43.259136",
    "MEAN_MOTION": 14.19904802,
    "ECCENTRICITY": 0.00026189,
    "INCLINATION": 98.7495,
    "RA_OF_ASC_NODE": 189.7965,
    "ARG_OF_PERICENTER": 55.2654,
    "MEAN_ANOMALY": 304.8768,
    "EPHEMERIS_TYPE": 0,
    "CLASSIFICATION_TYPE": "U",
    "NORAD_CAT_ID": 49008,
    "ELEMENT_SET_NO": 999,
    "REV_AT_EPOCH": 25919,
    "BSTAR": -0.000096465906,
    "MEAN_MOTION_DOT": -0.00000249,
    "MEAN_MOTION_DDOT": 0
   }
  },
  {
   "norad": 57490,
   "name": "FENGYUN 3F",
   "intl": "2023-111A",
   "group": "weather",
   "gcat": {
    "class": "C",
    "category": "MET",
    "owner": "NSMC",
    "state": "CN"
   },
   "omm": {
    "OBJECT_NAME": "FENGYUN 3F",
    "OBJECT_ID": "2023-111A",
    "EPOCH": "2026-07-05T15:32:24.012096",
    "MEAN_MOTION": 14.19942372,
    "ECCENTRICITY": 0.00014537,
    "INCLINATION": 98.6829,
    "RA_OF_ASC_NODE": 256.3117,
    "ARG_OF_PERICENTER": 81.0247,
    "MEAN_ANOMALY": 279.1094,
    "EPHEMERIS_TYPE": 0,
    "CLASSIFICATION_TYPE": "U",
    "NORAD_CAT_ID": 57490,
    "ELEMENT_SET_NO": 999,
    "REV_AT_EPOCH": 15148,
    "BSTAR": 0.00005115453,
    "MEAN_MOTION_DOT": 6.5e-7,
    "MEAN_MOTION_DDOT": 0
   }
  },
  {
   "norad": 56232,
   "name": "FENGYUN 3G",
   "intl": "2023-055A",
   "group": "weather",
   "gcat": {
    "class": "C",
    "category": "MET",
    "owner": "NSMC",
    "state": "CN"
   },
   "omm": {
    "OBJECT_NAME": "FENGYUN 3G",
    "OBJECT_ID": "2023-055A",
    "EPOCH": "2026-07-05T13:44:21.986880",
    "MEAN_MOTION": 15.53481035,
    "ECCENTRICITY": 0.0007271,
    "INCLINATION": 49.9918,
    "RA_OF_ASC_NODE": 251.2338,
    "ARG_OF_PERICENTER": 13.5695,
    "MEAN_ANOMALY": 346.5467,
    "EPHEMERIS_TYPE": 0,
    "CLASSIFICATION_TYPE": "U",
    "NORAD_CAT_ID": 56232,
    "ELEMENT_SET_NO": 999,
    "REV_AT_EPOCH": 18286,
    "BSTAR": 0.00038564512,
    "MEAN_MOTION_DOT": 0.00024598,
    "MEAN_MOTION_DDOT": 0
   }
  },
  {
   "norad": 65815,
   "name": "FENGYUN 3H",
   "intl": "2025-219A",
   "group": "weather",
   "gcat": {
    "class": "C",
    "category": "MET",
    "owner": "NSMC",
    "state": "CN"
   },
   "omm": {
    "OBJECT_NAME": "FENGYUN 3H",
    "OBJECT_ID": "2025-219A",
    "EPOCH": "2026-07-05T07:00:10.534176",
    "MEAN_MOTION": 14.19923761,
    "ECCENTRICITY": 0.0001364,
    "INCLINATION": 98.6769,
    "RA_OF_ASC_NODE": 126.7091,
    "ARG_OF_PERICENTER": 65.4947,
    "MEAN_ANOMALY": 294.6372,
    "EPHEMERIS_TYPE": 0,
    "CLASSIFICATION_TYPE": "U",
    "NORAD_CAT_ID": 65815,
    "ELEMENT_SET_NO": 999,
    "REV_AT_EPOCH": 3995,
    "BSTAR": 0.000063647,
    "MEAN_MOTION_DOT": 9.2e-7,
    "MEAN_MOTION_DDOT": 0
   }
  },
  {
   "norad": 41882,
   "name": "FENGYUN 4A",
   "intl": "2016-077A",
   "group": "weather",
   "gcat": {
    "class": "C",
    "category": "MET",
    "owner": "NSMC",
    "state": "CN"
   },
   "omm": {
    "OBJECT_NAME": "FENGYUN 4A",
    "OBJECT_ID": "2016-077A",
    "EPOCH": "2026-07-05T15:51:39.959424",
    "MEAN_MOTION": 1.00274232,
    "ECCENTRICITY": 0.00080074,
    "INCLINATION": 2.3666,
    "RA_OF_ASC_NODE": 80.0843,
    "ARG_OF_PERICENTER": 157.8053,
    "MEAN_ANOMALY": 47.4517,
    "EPHEMERIS_TYPE": 0,
    "CLASSIFICATION_TYPE": "U",
    "NORAD_CAT_ID": 41882,
    "ELEMENT_SET_NO": 999,
    "REV_AT_EPOCH": 3511,
    "BSTAR": 0,
    "MEAN_MOTION_DOT": -0.00000344,
    "MEAN_MOTION_DDOT": 0
   }
  },
  {
   "norad": 42920,
   "name": "FORMOSAT-5",
   "intl": "2017-049A",
   "group": "resource",
   "gcat": {
    "class": "C",
    "category": "IMG/SCI",
    "owner": "NSPO",
    "state": "TW"
   },
   "omm": {
    "OBJECT_NAME": "FORMOSAT-5",
    "OBJECT_ID": "2017-049A",
    "EPOCH": "2026-07-05T07:52:30.851040",
    "MEAN_MOTION": 14.50906012,
    "ECCENTRICITY": 0.0011991,
    "INCLINATION": 98.2249,
    "RA_OF_ASC_NODE": 261.2346,
    "ARG_OF_PERICENTER": 33.306,
    "MEAN_ANOMALY": 326.8887,
    "EPHEMERIS_TYPE": 0,
    "CLASSIFICATION_TYPE": "U",
    "NORAD_CAT_ID": 42920,
    "ELEMENT_SET_NO": 999,
    "REV_AT_EPOCH": 46930,
    "BSTAR": 0.000072423,
    "MEAN_MOTION_DOT": 0.00000242,
    "MEAN_MOTION_DDOT": 0
   }
  }
 ]
}
